{
    "links": {
        "self": "http://www.neowsapp.com/rest/v1/neo/3384480?api_key=iIulBulltgU6a56xZRHN4H3l9WmuAYTsLGpBGhQ2"
    },
    "id": "3384480",
    "neo_reference_id": "3384480",
    "name": "(2007 RU19)",
    "designation": "2007 RU19",
    "nasa_jpl_url": "http://ssd.jpl.nasa.gov/sbdb.cgi?sstr=3384480",
    "absolute_magnitude_h": 26.6,
    "estimated_diameter": {
        "kilometers": {
            "estimated_diameter_min": 0.0127219879,
            "estimated_diameter_max": 0.0284472297
        },
        "meters": {
            "estimated_diameter_min": 12.7219878539,
            "estimated_diameter_max": 28.4472296503
        },
        "miles": {
            "estimated_diameter_min": 0.0079050743,
            "estimated_diameter_max": 0.0176762835
        },
        "feet": {
            "estimated_diameter_min": 41.7388066307,
            "estimated_diameter_max": 93.330808926
        }
    },
    "is_potentially_hazardous_asteroid": false,
    "close_approach_data": [
        {
            "close_approach_date": "1989-10-08",
            "close_approach_date_full": "1989-Oct-08 22:00",
            "epoch_date_close_approach": 623887200000,
            "relative_velocity": {
                "kilometers_per_second": "13.1420099252",
                "kilometers_per_hour": "47311.235730607",
                "miles_per_hour": "29397.3620016096"
            },
            "miss_distance": {
                "astronomical": "0.2415241275",
                "lunar": "93.9528855975",
                "kilometers": "36131495.027608425",
                "miles": "22451069.940209265"
            },
            "orbiting_body": "Earth"
        },
        {
            "close_approach_date": "2007-09-06",
            "close_approach_date_full": "2007-Sep-06 06:13",
            "epoch_date_close_approach": 1189059180000,
            "relative_velocity": {
                "kilometers_per_second": "5.9564252876",
                "kilometers_per_hour": "21443.1310353437",
                "miles_per_hour": "13323.9277258223"
            },
            "miss_distance": {
                "astronomical": "0.0183936701",
                "lunar": "7.1551376689",
                "kilometers": "2751653.868442687",
                "miles": "1709798.4294436006"
            },
            "orbiting_body": "Earth"
        }
    ],
    "orbital_data": {
        "orbit_id": "6",
        "orbit_determination_date": "2017-04-06 09:06:01",
        "first_observation_date": "2007-09-13",
        "last_observation_date": "2007-09-15",
        "data_arc_in_days": 2,
        "observations_used": 13,
        "orbit_uncertainty": "8",
        "minimum_orbit_intersection": ".0171427",
        "jupiter_tisserand_invariant": "4.073",
        "epoch_osculation": "2454357.5",
        "eccentricity": ".4072914692793085",
        "semi_major_axis": "1.7207411613684",
        "inclination": "2.841718645235182",
        "ascending_node_longitude": "353.1995298321071",
        "orbital_period": "824.4640968708734",
        "perihelion_distance": "1.019897965505281",
        "perihelion_argument": "340.4507330953227",
        "aphelion_distance": "2.42158435723152",
        "perihelion_time": "2454341.530739485238",
        "mean_anomaly": "6.972934063634201",
        "mean_motion": ".4366472735032667",
        "equinox": "J2000",
        "orbit_class": {
            "orbit_class_type": "AMO",
            "orbit_class_description": "Near-Earth asteroid orbits similar to that of 1221 Amor",
            "orbit_class_range": "1.017 AU < q (perihelion) < 1.3 AU"
        }
    },
    "is_sentry_object": false
}